0 ARIANE 40 R/B
1 25261U 98017B   17004.87852563 +.00000095 +00000-0 +49960-4 0  9993
2 25261 098.5270 314.3406 0002678 197.8420 162.2671 14.33544132981366
0 SPOT 4
1 25260U 98017A   17004.90951278 -.00000098 +00000-0 -12599-4 0  9992
2 25260 098.3640 087.7746 0013999 059.4102 300.8471 14.53453028978134
0 SL-3 DEB
1 25255U 81043D   17004.79869537 +.00000060 +00000-0 +28222-4 0  9997
2 25255 081.2839 272.4609 0045940 257.3424 161.9343 14.07861030036412
0 SL-16 DEB
1 25254U 93059H   17003.57617112  .00000049  00000-0  44915-4 0  9995
2 25254  70.9868 164.8181 0018028 233.6880 194.6058 14.21206816  7197
0 SL-14 DEB
1 25246U 87068BP  17004.53150617 +.00000283 +00000-0 +14033-3 0  9995
2 25246 082.2512 067.4664 0084537 056.8301 011.8312 14.12257855969149
0 SL-14 DEB
1 25227U 87068BE  17004.98040485  .00001209  00000-0  59838-3 0  9995
2 25227  82.5344 340.8681 0013199 207.7494 152.2981 14.16567681965926
0 SL-14 DEB
1 25226U 87068BD  17004.16628428  .00001203  00000-0  82563-3 0  9998
2 25226  82.5269 135.6278 0074389 116.4477 299.2826 13.97435196954154
0 SL-14 DEB
1 25225U 87068BC  17004.64847656  .00002437  00000-0  14748-2 0  9995
2 25225  82.5038  82.0820 0077534 307.7468 179.2043 14.04665519957250
0 SL-14 DEB
1 25221U 87068AY  17006.71028708 -.00000172 +00000-0 -25086-3 0  9994
2 25221 082.2985 266.9580 0166740 216.5748 171.7445 13.53692735931524
0 SL-14 DEB
1 25214U 87068AR  17007.12194503  .00000266  00000-0  16636-3 0  9992
2 25214  82.5440  57.5878 0016534 113.0057 277.1845 14.01161981960871
0 SL-14 DEB
1 25205U 87068AG  17005.34649986  .00000224  00000-0  16587-3 0  9993
2 25205  82.5392 100.5446 0014625 232.4566 198.3144 13.91375359957042
0 SL-14 DEB
1 25204U 87068AF  17006.32612531 +.00000659 +00000-0 +50240-3 0  9993
2 25204 082.4319 112.1566 0117028 296.2188 116.4668 13.89235324950106
0 SL-14 DEB
1 25203U 87068AE  17006.49337411  .00000373  00000-0  15999-3 0  9996
2 25203  82.2689   6.1660 0099494 160.5846 199.9168 14.19935744975239
0 SL-14 DEB
1 25199U 87068AA  17006.37108678 +.00000413 +00000-0 +40682-3 0  9990
2 25199 082.3662 145.5927 0095762 284.3969 074.6571 13.74823656944178
0 SL-14 DEB
1 25187U 87068N   17006.30990598 +.00001463 +00000-0 +67766-3 0  9998
2 25187 082.5523 323.8460 0011799 133.5520 226.6642 14.20197127967567
0 IRIDIUM 53
1 25173U 98010E   17006.69420587 +.00000123 +00000-0 +36882-4 0  9998
2 25173 086.3954 057.8858 0002165 092.4302 267.7142 14.34217843988348
0 IRIDIUM 50
1 25172U 98010D   17006.67517367 +.00000103 +00000-0 +29649-4 0  9999
2 25172 086.3954 057.8883 0002065 093.4567 266.6865 14.34217968988335
0 IRIDIUM 54
1 25171U 98010C   17006.71323806 +.00000118 +00000-0 +35213-4 0  9996
2 25171 086.3955 057.9153 0002162 092.8047 267.3396 14.34217764988791
0 IRIDIUM 56
1 25170U 98010B   17006.68150491 +.00000121 +00000-0 +36128-4 0  9999
2 25170 086.3957 058.0106 0002357 098.0189 262.1274 14.34218749988559
0 IRIDIUM 52
1 25169U 98010A   17006.68787011 +.00000122 +00000-0 +36583-4 0  9997
2 25169 086.3955 057.9058 0002166 092.7148 267.4296 14.34217637988358
0 GLOBALSTAR M003
1 25165U 98008D   17003.70006089  .00000067  00000-0  16703-2 0  9997
2 25165  51.9779  77.6333 0006936 191.4706 342.8775 12.11892218859069
0 GLOBALSTAR M002
1 25164U 98008C   17006.56638029 -.00000077 +00000-0 -21543-5 0  9992
2 25164 052.0030 051.4767 0000916 250.4794 109.5927 11.61458962825749
0 GLOBALSTAR M004
1 25163U 98008B   17006.68295012 -.00000108 +00000-0 -23266-4 0  9993
2 25163 052.0001 099.8436 0002283 293.4638 230.9353 12.63261574871947
0 GLOBALSTAR M001
1 25162U 98008A   17003.23716950 -.00000128  00000-0 -23935-3 0  9993
2 25162  52.0053 316.7532 0001139 253.1514 246.9738 12.38082686861430
0 TAURUS DEB
1 25161U 98007E   17001.23641059 -.00000030  00000-0  42024-4 0  9998
2 25161 107.9655 265.1570 0062358 240.6549 235.0571 14.25144875981327
0 CELESTIS 02/TAURUS R/B
1 25160U 98007D   17006.09420278 -.00000085 +00000-0 +19701-4 0  9990
2 25160 107.9500 228.1865 0064605 277.7704 203.1548 14.21452160980292
0 ORBCOMM FM 4
1 25159U 98007C   17006.75610921 +.00000051 +00000-0 +71159-4 0  9994
2 25159 107.9835 317.9108 0044638 200.3775 159.5581 14.29293437983306
0 ORBCOMM FM 3
1 25158U 98007B   17006.78898772 +.00000129 +00000-0 +10145-3 0  9991
2 25158 107.9840 317.2148 0048996 199.5224 160.4037 14.28994341983181
0 GFO
1 25157U 98007A   17006.71124741 +.00000643 +00000-0 +54783-4 0  9999
2 25157 108.0492 035.9845 0177315 275.4620 082.6351 14.99354834005235
0 TRANSIT 5B-2 DEB
1 25156U 63049N   17006.76765392 +.00000249 +00000-0 +35404-3 0  9994
2 25156 089.9264 102.6845 0033768 355.1468 160.4982 13.53626053932125
0 DELTA 2 DEB
1 25138U 98002E   17006.60766181 +.00000326 +00000-0 +16721-3 0  9998
2 25138 026.8790 059.5948 0334160 010.5473 151.2243 13.68724665948793
0 DELTA 2 R/B(1)
1 25135U 98002B   17006.25109678 +.00000119 +00000-0 +59837-5 0  9995
2 25135 026.8863 294.0771 0356226 334.0920 192.7576 13.62343780946111
0 ORBCOMM FM 7
1 25119U 97084H   17004.83011692  .00000079  00000-0  71958-4 0  9998
2 25119  45.0169 283.2868 0002443 213.8483 146.2210 14.38475902996793
0 ORBCOMM FM 6
1 25118U 97084G   17003.91769789 +.00000082 +00000-0 +72863-4 0  9992
2 25118 045.0174 287.4351 0002203 260.8181 141.2905 14.38465881996669
0 ORBCOMM FM 5
1 25117U 97084F   17001.13799970  .00000050  00000-0  62494-4 0  9992
2 25117  45.0179 300.7523 0001987 245.7714 114.2927 14.38473228996258
0 ORBCOMM FM 9
1 25116U 97084E   17004.23049671  .00000078  00000-0  71766-4 0  9993
2 25116  45.0181 285.9481 0004584 168.9484 191.1466 14.38462965996701
0 ORBCOMM FM 12
1 25115U 97084D   17001.85972748  .00000085  00000-0  73901-4 0  9998
2 25115  45.0176 296.6208 0003559 181.6633 178.4204 14.38441081996365
0 ORBCOMM FM 11
1 25114U 97084C   17003.82178550  .00000092  00000-0  76014-4 0  9991
2 25114  45.0170 287.5344 0004801 185.7728 174.3066 14.38472241996643
0 ORBCOMM FM 10
1 25113U 97084B   17003.90022564 +.00000030 +00000-0 +56049-4 0  9990
2 25113 045.0184 287.8246 0003872 190.8085 169.2681 14.38481587171645
0 ORBCOMM FM 8
1 25112U 97084A   17007.75689701 -.00000073  00000-0  22658-4 0  9995
2 25112  45.0164 268.4406 0006989 233.8992 126.1210 14.38457826997221
0 IRIDIUM 49
1 25108U 97082E   17001.52148743  .00000120  00000-0  35721-4 0  9990
2 25108  86.3962 325.0862 0002107  89.2241  44.2830 14.34216248996486
0 IRIDIUM 47
1 25106U 97082C   17004.48302105  .00000152  00000-0  47103-4 0  9992
2 25106  86.3962 323.7494 0002071  90.6249 269.5184 14.34216945996909
0 IRIDIUM 24
1 25105U 97082B   17005.49158535  .00000145  00000-0  39734-4 0  9992
2 25105  86.3944 304.1625 0012423 151.4227 208.7655 14.39828688999449
0 IRIDIUM 45
1 25104U 97082A   17003.54772737 -.00000040 +00000-0 -21375-4 0  9999
2 25104 086.3945 356.0631 0003023 097.2264 262.9276 14.34214271996503
0 OPS 0856 DEB
1 25097U 66077S   17006.48490771  .00000009  00000-0  00000+0 0  9991
2 25097  88.2642 305.4226 1822925  55.1696 320.7410  8.84690363672243
0 SL-8 DEB
1 25085U 91009CX  17006.09776351  .00000242  00000-0  22773-2 0  9992
2 25085  74.1116 230.5948 0174913  43.2393 112.1906 12.22799891989592
0 IRIDIUM 44
1 25078U 97077B   17002.82366025  .00000164  00000-0  47533-4 0  9991
2 25078  86.3969  81.0597 0003897  93.0149 267.1495 14.38087506999865
0 IRIDIUM 42
1 25077U 97077A   17002.87345622  .00000112  00000-0  32711-4 0  9990
2 25077  86.3978  91.0573 0002315  96.6100 263.5359 14.34522333998494
0 SL-8 DEB
1 25057U 90036C   17004.50077698  .00000115  00000-0  92625-4 0  9996
2 25057  82.9409  78.2687 0021156 209.5977 210.2422 13.82271482234319
0 IRIDIUM 38
1 25043U 97069E   17003.77312391 +.00000134 +00000-0 +39477-4 0  9991
2 25043 086.3973 088.0857 0003582 096.6451 263.5153 14.36000928002872
0 IRIDIUM 39
1 25042U 97069D   17004.37297838  .00000126  00000-0  29572-4 0  9991
2 25042  86.3932  89.1209 0020699 133.5730 226.7196 14.46118906  3043
0 IRIDIUM 40
1 25041U 97069C   17003.83081463 +.00000216 +00000-0 +70068-4 0  9991
2 25041 086.3989 090.9089 0002081 065.5278 294.6135 14.34221440002755
0 IRIDIUM 41
1 25040U 97069B   17003.80543220 +.00000192 +00000-0 +61616-4 0  9993
2 25040 086.3974 090.6909 0002273 100.2817 259.8635 14.34224114002451
0 IRIDIUM 43
1 25039U 97069A   17003.81186210 +.00000216 +00000-0 +70196-4 0  9994
2 25039 086.3992 090.7387 0002127 092.2839 267.8600 14.34223704002750
0 SL-8 DEB
1 25028U 93036D   17003.95097196 +.00000208 +00000-0 +80553-4 0  9990
2 25028 074.0416 177.0843 0010042 156.4842 324.4156 14.35909275107950
0 SL-8 DEB
1 25027U 92053D   17003.46146212 +.00000185 +00000-0 +69903-4 0  9997
2 25027 074.0325 006.1312 0005684 256.3447 265.7274 14.37884919032479
0 PEGASUS DEB
1 24996U 94029ADD 17003.70689273 +.00002523 +00000-0 +63313-3 0  9998
2 24996 082.1962 247.9423 0343237 036.2326 326.1576 14.21019823003515
0 PEGASUS DEB
1 24985U 94029ACT 17003.85578113  .00000807  00000-0  26802-3 0  9997
2 24985  81.5206 297.1314 0666523  33.7813 330.3990 13.54451249130506
0 PEGASUS DEB
1 24980U 94029ACN 17006.29203671  .00001622  00000-0  33334-3 0  9991
2 24980  81.5918  13.0717 0306356  34.3385 327.7186 14.34526045 49455
0 PEGASUS DEB
1 24978U 94029ACL 17003.60584869  .00002471  00000-0  29723-3 0  9991
2 24978  81.4449 221.6763 0340819 314.2906  43.0782 14.50011721 50943
0 SL-8 DEB
1 24974U 92053C   17003.92247420 +.00000166 +00000-0 +73547-4 0  9999
2 24974 074.0528 194.8837 0023454 332.1167 148.2763 14.30551179027584
0 PEGASUS DEB
1 24973U 94029ACF 17001.93179050  .00000736  00000-0  17461-3 0  9990
2 24973  82.0190 322.8933 0338002 352.2861  64.2838 14.23480990 56877
0 IRS 1D
1 24971U 97057A   17004.15155505  .00000026  00000-0  24198-4 0  9996
2 24971  98.4127 316.7229 0053466 350.6329   9.3854 14.33856336  7916
0 IRIDIUM 34
1 24969U 97056E   17003.61453526 -.00000020 +00000-0 -14083-4 0  9994
2 24969 086.3947 027.6168 0002064 086.5484 273.5947 14.34217733008950
0 IRIDIUM 37
1 24968U 97056D   17003.94434735 +.00000017 +00000-0 -86362-6 0  9996
2 24968 086.3950 027.5421 0002099 090.3438 269.7998 14.34218247008789
